[
    {
        "CCSDS_OMM_VERS": "3.0",
        "COMMENT": "GENERATED VIA SPACE-TRACK.ORG API",
        "CREATION_DATE": "2025-03-02T18:08:23",
        "ORIGINATOR": "18 SPCS",
        "OBJECT_NAME": "NAVSTAR 70 (USA 251)",
        "OBJECT_ID": "2014-026A",
        "CENTER_NAME": "EARTH",
        "REF_FRAME": "TEME",
        "TIME_SYSTEM": "UTC",
        "MEAN_ELEMENT_THEORY": "SGP4",
        "EPOCH": "2025-03-02T07:31:34.938048",
        "MEAN_MOTION": "2.00549972",
        "ECCENTRICITY": "0.00361660",
        "INCLINATION": "56.6735",
        "RA_OF_ASC_NODE": "349.8616",
        "ARG_OF_PERICENTER": "319.1557",
        "MEAN_ANOMALY": "40.5924",
        "EPHEMERIS_TYPE": "0",
        "CLASSIFICATION_TYPE": "U",
        "NORAD_CAT_ID": "39741",
        "ELEMENT_SET_NO": "999",
        "REV_AT_EPOCH": "7907",
        "BSTAR": "0.00000000000000",
        "MEAN_MOTION_DOT": "-0.00000081",
        "MEAN_MOTION_DDOT": "0.0000000000000",
        "SEMIMAJOR_AXIS": "26561.551",
        "PERIOD": "718.026",
        "APOAPSIS": "20279.479",
        "PERIAPSIS": "20087.354",
        "OBJECT_TYPE": "PAYLOAD",
        "RCS_SIZE": "LARGE",
        "COUNTRY_CODE": "US",
        "LAUNCH_DATE": "2014-05-17",
        "SITE": "AFETR",
        "DECAY_DATE": null,
        "FILE": "4657142",
        "GP_ID": "282084438",
        "TLE_LINE0": "0 NAVSTAR 70 (USA 251)",
        "TLE_LINE1": "1 39741U 14026A   25061.31359882 -.00000081  00000-0  00000-0 0  9990",
        "TLE_LINE2": "2 39741  56.6735 349.8616 0036166 319.1557  40.5924  2.00549972 79073"
    }
]